CCSDS_OMM_VERS = 2.0
CREATION_DATE  = 
ORIGINATOR     = 

OBJECT_NAME    = STARLINK-35814
OBJECT_ID      = 2025-268V
CENTER_NAME    = EARTH
REF_FRAME      = TEME
TIME_SYSTEM    = UTC
MEAN_ELEMENT_THEORY = SGP/SGP4

EPOCH          = 2025-12-20T12:00:02.000160
MEAN_MOTION    = 15.56177024
ECCENTRICITY   = .0001897
INCLINATION    = 43.0004
RA_OF_ASC_NODE = 75.7037
ARG_OF_PERICENTER = 262.7822
MEAN_ANOMALY   = 51.9563

EPHEMERIS_TYPE = 0
CLASSIFICATION_TYPE = U
NORAD_CAT_ID   = 66576
ELEMENT_SET_NO = 999
REV_AT_EPOCH   = 591
BSTAR          = .30281E-2
MEAN_MOTION_DOT = .223642E-2
MEAN_MOTION_DDOT = 0

CCSDS_OMM_VERS = 2.0
CREATION_DATE  = 
ORIGINATOR     = 

OBJECT_NAME    = STARLINK-35815
OBJECT_ID      = 2025-268W
CENTER_NAME    = EARTH
REF_FRAME      = TEME
TIME_SYSTEM    = UTC
MEAN_ELEMENT_THEORY = SGP/SGP4

EPOCH          = 2025-12-20T12:13:06.893184
MEAN_MOTION    = 15.51230363
ECCENTRICITY   = .0023776
INCLINATION    = 43.0031
RA_OF_ASC_NODE = 75.6638
ARG_OF_PERICENTER = 54.8873
MEAN_ANOMALY   = 305.4212

EPHEMERIS_TYPE = 0
CLASSIFICATION_TYPE = U
NORAD_CAT_ID   = 66577
ELEMENT_SET_NO = 999
REV_AT_EPOCH   = 583
BSTAR          = .15436E-2
MEAN_MOTION_DOT = .94527E-3
MEAN_MOTION_DDOT = 0

CCSDS_OMM_VERS = 2.0
CREATION_DATE  = 
ORIGINATOR     = 

OBJECT_NAME    = STARLINK-35743
OBJECT_ID      = 2025-268X
CENTER_NAME    = EARTH
REF_FRAME      = TEME
TIME_SYSTEM    = UTC
MEAN_ELEMENT_THEORY = SGP/SGP4

EPOCH          = 2025-12-19T13:01:43.293216
MEAN_MOTION    = 15.50763067
ECCENTRICITY   = .0000651
INCLINATION    = 42.9979
RA_OF_ASC_NODE = 81.3160
ARG_OF_PERICENTER = 284.5171
MEAN_ANOMALY   = 75.5617

EPHEMERIS_TYPE = 0
CLASSIFICATION_TYPE = U
NORAD_CAT_ID   = 66578
ELEMENT_SET_NO = 999
REV_AT_EPOCH   = 568
BSTAR          = .24134E-2
MEAN_MOTION_DOT = .14484E-2
MEAN_MOTION_DDOT = 0

CCSDS_OMM_VERS = 2.0
CREATION_DATE  = 
ORIGINATOR     = 

OBJECT_NAME    = STARLINK-35868
OBJECT_ID      = 2025-268Y
CENTER_NAME    = EARTH
REF_FRAME      = TEME
TIME_SYSTEM    = UTC
MEAN_ELEMENT_THEORY = SGP/SGP4

EPOCH          = 2025-12-20T12:00:02.000160
MEAN_MOTION    = 15.56183047
ECCENTRICITY   = .0001966
INCLINATION    = 42.9992
RA_OF_ASC_NODE = 75.6891
ARG_OF_PERICENTER = 260.8223
MEAN_ANOMALY   = 59.6614

EPHEMERIS_TYPE = 0
CLASSIFICATION_TYPE = U
NORAD_CAT_ID   = 66579
ELEMENT_SET_NO = 999
REV_AT_EPOCH   = 591
BSTAR          = .2986E-2
MEAN_MOTION_DOT = .220483E-2
MEAN_MOTION_DDOT = 0

CCSDS_OMM_VERS = 2.0
CREATION_DATE  = 
ORIGINATOR     = 

OBJECT_NAME    = STARLINK-35872
OBJECT_ID      = 2025-268Z
CENTER_NAME    = EARTH
REF_FRAME      = TEME
TIME_SYSTEM    = UTC
MEAN_ELEMENT_THEORY = SGP/SGP4

EPOCH          = 2025-12-19T14:33:26.953344
MEAN_MOTION    = 15.50873267
ECCENTRICITY   = .0002511
INCLINATION    = 42.9993
RA_OF_ASC_NODE = 80.9317
ARG_OF_PERICENTER = 162.1716
MEAN_ANOMALY   = 197.9233

EPHEMERIS_TYPE = 0
CLASSIFICATION_TYPE = U
NORAD_CAT_ID   = 66580
ELEMENT_SET_NO = 999
REV_AT_EPOCH   = 569
BSTAR          = .27444E-2
MEAN_MOTION_DOT = .165853E-2
MEAN_MOTION_DDOT = 0

CCSDS_OMM_VERS = 2.0
CREATION_DATE  = 
ORIGINATOR     = 

OBJECT_NAME    = STARLINK-35744
OBJECT_ID      = 2025-268AA
CENTER_NAME    = EARTH
REF_FRAME      = TEME
TIME_SYSTEM    = UTC
MEAN_ELEMENT_THEORY = SGP/SGP4

EPOCH          = 2025-12-20T12:11:08.741184
MEAN_MOTION    = 15.51171688
ECCENTRICITY   = .0019418
INCLINATION    = 43.0014
RA_OF_ASC_NODE = 75.6513
ARG_OF_PERICENTER = 38.7334
MEAN_ANOMALY   = 321.4915

EPHEMERIS_TYPE = 0
CLASSIFICATION_TYPE = U
NORAD_CAT_ID   = 66581
ELEMENT_SET_NO = 999
REV_AT_EPOCH   = 583
BSTAR          = .11801E-2
MEAN_MOTION_DOT = .71548E-3
MEAN_MOTION_DDOT = 0

CCSDS_OMM_VERS = 2.0
CREATION_DATE  = 
ORIGINATOR     = 

OBJECT_NAME    = STARLINK-35746
OBJECT_ID      = 2025-268AB
CENTER_NAME    = EARTH
REF_FRAME      = TEME
TIME_SYSTEM    = UTC
MEAN_ELEMENT_THEORY = SGP/SGP4

EPOCH          = 2025-12-20T12:10:39.225216
MEAN_MOTION    = 15.51195543
ECCENTRICITY   = .0019685
INCLINATION    = 43.0006
RA_OF_ASC_NODE = 75.6486
ARG_OF_PERICENTER = 40.0324
MEAN_ANOMALY   = 320.1984

EPHEMERIS_TYPE = 0
CLASSIFICATION_TYPE = U
NORAD_CAT_ID   = 66582
ELEMENT_SET_NO = 999
REV_AT_EPOCH   = 583
BSTAR          = .16006E-2
MEAN_MOTION_DOT = .97588E-3
MEAN_MOTION_DDOT = 0

CCSDS_OMM_VERS = 2.0
CREATION_DATE  = 
ORIGINATOR     = 

OBJECT_NAME    = STARLINK-35941
OBJECT_ID      = 2025-268AC
CENTER_NAME    = EARTH
REF_FRAME      = TEME
TIME_SYSTEM    = UTC
MEAN_ELEMENT_THEORY = SGP/SGP4

EPOCH          = 2025-12-20T05:59:10.873824
MEAN_MOTION    = 15.51292790
ECCENTRICITY   = .0012733
INCLINATION    = 43.0013
RA_OF_ASC_NODE = 77.1533
ARG_OF_PERICENTER = 76.6546
MEAN_ANOMALY   = 283.5733

EPHEMERIS_TYPE = 0
CLASSIFICATION_TYPE = U
NORAD_CAT_ID   = 66583
ELEMENT_SET_NO = 999
REV_AT_EPOCH   = 579
BSTAR          = .16923E-2
MEAN_MOTION_DOT = .103155E-2
MEAN_MOTION_DDOT = 0

CCSDS_OMM_VERS = 2.0
CREATION_DATE  = 
ORIGINATOR     = 

OBJECT_NAME    = STARLINK-35939
OBJECT_ID      = 2025-268AD
CENTER_NAME    = EARTH
REF_FRAME      = TEME
TIME_SYSTEM    = UTC
MEAN_ELEMENT_THEORY = SGP/SGP4

EPOCH          = 2025-12-19T14:31:27.869088
MEAN_MOTION    = 15.50751867
ECCENTRICITY   = .0002615
INCLINATION    = 42.9992
RA_OF_ASC_NODE = 80.9182
ARG_OF_PERICENTER = 187.8218
MEAN_ANOMALY   = 172.2602

EPHEMERIS_TYPE = 0
CLASSIFICATION_TYPE = U
NORAD_CAT_ID   = 66584
ELEMENT_SET_NO = 999
REV_AT_EPOCH   = 569
BSTAR          = .12867E-2
MEAN_MOTION_DOT = .76356E-3
MEAN_MOTION_DDOT = 0

CCSDS_OMM_VERS = 2.0
CREATION_DATE  = 
ORIGINATOR     = 

OBJECT_NAME    = STARLINK-35963
OBJECT_ID      = 2025-268AE
CENTER_NAME    = EARTH
REF_FRAME      = TEME
TIME_SYSTEM    = UTC
MEAN_ELEMENT_THEORY = SGP/SGP4

EPOCH          = 2025-12-20T12:00:02.000160
MEAN_MOTION    = 15.56133059
ECCENTRICITY   = .000177
INCLINATION    = 43.0013
RA_OF_ASC_NODE = 75.6569
ARG_OF_PERICENTER = 252.4416
MEAN_ANOMALY   = 79.5569

EPHEMERIS_TYPE = 0
CLASSIFICATION_TYPE = U
NORAD_CAT_ID   = 66585
ELEMENT_SET_NO = 999
REV_AT_EPOCH   = 591
BSTAR          = .28622E-2
MEAN_MOTION_DOT = .210676E-2
MEAN_MOTION_DDOT = 0

CCSDS_OMM_VERS = 2.0
CREATION_DATE  = 
ORIGINATOR     = 

OBJECT_NAME    = TJS-21
OBJECT_ID      = 2025-269A
CENTER_NAME    = EARTH
REF_FRAME      = TEME
TIME_SYSTEM    = UTC
MEAN_ELEMENT_THEORY = SGP/SGP4

EPOCH          = 2025-12-18T16:58:10.473888
MEAN_MOTION    = 2.00580748
ECCENTRICITY   = .6806869
INCLINATION    = 63.2733
RA_OF_ASC_NODE = 161.7218
ARG_OF_PERICENTER = 269.7428
MEAN_ANOMALY   = 18.6663

EPHEMERIS_TYPE = 0
CLASSIFICATION_TYPE = U
NORAD_CAT_ID   = 66586
ELEMENT_SET_NO = 999
REV_AT_EPOCH   = 55
BSTAR          = -.59507049E-1
MEAN_MOTION_DOT = .1084E-4
MEAN_MOTION_DDOT = 0

CCSDS_OMM_VERS = 2.0
CREATION_DATE  = 
ORIGINATOR     = 

OBJECT_NAME    = CZ-3B R/B
OBJECT_ID      = 2025-269B
CENTER_NAME    = EARTH
REF_FRAME      = TEME
TIME_SYSTEM    = UTC
MEAN_ELEMENT_THEORY = SGP/SGP4

EPOCH          = 2025-12-18T04:21:45.908640
MEAN_MOTION    = 2.04054650
ECCENTRICITY   = .75166459
INCLINATION    = 51.3412
RA_OF_ASC_NODE = 168.3764
ARG_OF_PERICENTER = 229.6756
MEAN_ANOMALY   = 36.1575

EPHEMERIS_TYPE = 0
CLASSIFICATION_TYPE = U
NORAD_CAT_ID   = 66587
ELEMENT_SET_NO = 999
REV_AT_EPOCH   = 56
BSTAR          = .58948144E-3
MEAN_MOTION_DOT = .8861E-3
MEAN_MOTION_DDOT = -.1447425E-5

